{"type": "FeatureCollection", "features": [{"type": "Feature", "properties": {"norad_id": 50032, "name": "COSMOS 1408 DEB", "group": "cosmos-1408-debris", "lat": 82.44455114801093, "lon": 156.6360447861563, "alt_km": 425.4151511168284, "timestamp": "2025-12-14T14:39:29.640960+00:00", "meta": {"OBJECT_NAME": "COSMOS 1408 DEB", "OBJECT_ID": "1982-092RU", "EPOCH": "2025-12-13T22:43:36.201792", "MEAN_MOTION": 15.45710174, "ECCENTRICITY": 0.00153499, "INCLINATION": 82.5643, "RA_OF_ASC_NODE": 57.2716, "ARG_OF_PERICENTER": 204.0305, "MEAN_ANOMALY": 156.0229, "EPHEMERIS_TYPE": 0, "CLASSIFICATION_TYPE": "U", "NORAD_CAT_ID": 50032, "ELEMENT_SET_NO": 999, "REV_AT_EPOCH": 22622, "BSTAR": 0.00013059545, "MEAN_MOTION_DOT": 6.373e-05, "MEAN_MOTION_DDOT": 0}, "tle": {"line1": "1 50032U 82092RU  25347.94694678  .00006373  00000+0  13060-3 0  9996", "line2": "2 50032  82.5643  57.2716 0015349 204.0305 156.0229 15.45710174226228"}}, "geometry": {"type": "Point", "coordinates": [156.6360447861563, 82.44455114801093]}}, {"type": "Feature", "properties": {"norad_id": 50058, "name": "COSMOS 1408 DEB", "group": "cosmos-1408-debris", "lat": 56.51601685175553, "lon": 78.6936536108126, "alt_km": 361.1028118683598, "timestamp": "2025-12-14T14:39:29.640982+00:00", "meta": {"OBJECT_NAME": "COSMOS 1408 DEB", "OBJECT_ID": "1982-092SW", "EPOCH": "2025-12-13T23:03:40.900320", "MEAN_MOTION": 15.64196119, "ECCENTRICITY": 0.00162635, "INCLINATION": 82.6133, "RA_OF_ASC_NODE": 68.0633, "ARG_OF_PERICENTER": 95.054, "MEAN_ANOMALY": 265.2576, "EPHEMERIS_TYPE": 0, "CLASSIFICATION_TYPE": "U", "NORAD_CAT_ID": 50058, "ELEMENT_SET_NO": 999, "REV_AT_EPOCH": 22823, "BSTAR": 0.00035914931, "MEAN_MOTION_DOT": 0.00034458, "MEAN_MOTION_DDOT": 0}, "tle": {"line1": "1 50058U 82092SW  25347.96089005  .00034458  00000+0  35915-3 0  9996", "line2": "2 50058  82.6133  68.0633 0016263  95.0540 265.2576 15.64196119228233"}}, "geometry": {"type": "Point", "coordinates": [78.6936536108126, 56.51601685175553]}}, {"type": "Feature", "properties": {"norad_id": 50404, "name": "COSMOS 1408 DEB", "group": "cosmos-1408-debris", "lat": -10.00682467421401, "lon": 34.502611028888076, "alt_km": 409.9985856230096, "timestamp": "2025-12-14T14:39:29.640995+00:00", "meta": {"OBJECT_NAME": "COSMOS 1408 DEB", "OBJECT_ID": "1982-092ADS", "EPOCH": "2025-12-13T15:36:46.976544", "MEAN_MOTION": 15.13985061, "ECCENTRICITY": 0.01712289, "INCLINATION": 82.2035, "RA_OF_ASC_NODE": 214.1008, "ARG_OF_PERICENTER": 195.758, "MEAN_ANOMALY": 163.8287, "EPHEMERIS_TYPE": 0, "CLASSIFICATION_TYPE": "U", "NORAD_CAT_ID": 50404, "ELEMENT_SET_NO": 999, "REV_AT_EPOCH": 21207, "BSTAR": 0.0029876166, "MEAN_MOTION_DOT": 0.00078948, "MEAN_MOTION_DDOT": 0}, "tle": {"line1": "1 50404U 82092ADS 25347.65054371  .00078948  00000+0  29876-2 0  9995", "line2": "2 50404  82.2035 214.1008 0171228 195.7580 163.8287 15.13985061212073"}}, "geometry": {"type": "Point", "coordinates": [34.502611028888076, -10.00682467421401]}}, {"type": "Feature", "properties": {"norad_id": 50621, "name": "COSMOS 1408 DEB", "group": "cosmos-1408-debris", "lat": 23.040557811613063, "lon": 75.41416768886052, "alt_km": 407.0901879138046, "timestamp": "2025-12-14T14:39:29.641006+00:00", "meta": {"OBJECT_NAME": "COSMOS 1408 DEB", "OBJECT_ID": "1982-092ALR", "EPOCH": "2025-12-13T23:07:53.263488", "MEAN_MOTION": 15.56744176, "ECCENTRICITY": 0.00289425, "INCLINATION": 82.5704, "RA_OF_ASC_NODE": 72.9061, "ARG_OF_PERICENTER": 147.9059, "MEAN_ANOMALY": 212.3966, "EPHEMERIS_TYPE": 0, "CLASSIFICATION_TYPE": "U", "NORAD_CAT_ID": 50621, "ELEMENT_SET_NO": 999, "REV_AT_EPOCH": 22269, "BSTAR": 0.00040553481, "MEAN_MOTION_DOT": 0.00029641, "MEAN_MOTION_DDOT": 0}, "tle": {"line1": "1 50621U 82092ALR 25347.96381092  .00029641  00000+0  40553-3 0  9995", "line2": "2 50621  82.5704  72.9061 0028942 147.9059 212.3966 15.56744176222693"}}, "geometry": {"type": "Point", "coordinates": [75.41416768886052, 23.040557811613063]}}]}